{"fetched_at":"2026-03-29T16:36:15Z","count":15609,"tles":[{"name":"STARLINK-33704","line1":"1 63650U 25083S   26087.82354903  .00039463  00000+0  14346-2 0  9999","line2":"2 63650  42.9993 257.1042 0001743 271.9088  88.1564 15.27609903 52998","category":"Starlink"}]}