{
  "norad_id": 63650,
  "name": "STARLINK-33704",
  "history": [
    {
      "epoch": "2026-03-28T19:45:54.636192",
      "apogee_km": 484.1557893454783,
      "perigee_km": 481.7633249759956,
      "latitude_deg": 28.0198034028495,
      "longitude_deg": -95.93929311982356,
      "semi_major_axis_km": 6861.096557160737,
      "eccentricity": 0.00017435,
      "inclination_deg": 42.9993,
      "raan_deg": 257.1042,
      "arg_perigee_deg": 271.9088,
      "mean_anomaly_deg": 88.1564,
      "mean_motion_rev_day": 15.27609903
    }
  ]
}